OBJECT_NAME,OBJECT_ID,EPOCH,MEAN_MOTION,ECCENTRICITY,INCLINATION,RA_OF_ASC_NODE,ARG_OF_PERICENTER,MEAN_ANOMALY,EPHEMERIS_TYPE,CLASSIFICATION_TYPE,NORAD_CAT_ID,ELEMENT_SET_NO,REV_AT_EPOCH,BSTAR,MEAN_MOTION_DOT,MEAN_MOTION_DDOT
CARTOSAT-2E,2017-036C,2026-06-11T09:07:28.320960,15.19276811,.0002739,97.4279,222.2784,345.0815,15.0338,0,U,42767,999,49726,.17867E-3,.3701E-4,0
IRIDIUM 113,2017-039A,2026-06-11T12:27:51.232608,14.34217670,.0002303,86.3966,324.5486,89.5088,270.6372,0,U,42803,999,47037,.10677E-4,.5E-6,0
NORSAT 2,2017-042D,2026-06-11T10:31:58.772352,15.21814729,.001072,97.4031,335.9718,75.5077,284.7348,0,U,42828,999,48686,.39608E-3,.8942E-4,0
TECHNOSAT,2017-042E,2026-06-11T09:33:22.331232,15.04918472,.0018777,97.4263,320.2771,112.5016,247.8201,0,U,42829,999,48583,.2208E-3,.3079E-4,0
FLYING LAPTOP,2017-042G,2026-06-11T17:16:07.610592,15.01110312,.0019311,97.4661,318.4641,139.4783,220.7883,0,U,42831,999,48563,.2352E-3,.2965E-4,0
WNISAT 1R,2017-042L,2026-06-11T16:40:32.519712,15.01739359,.0010485,97.4829,319.0139,165.8188,194.3333,0,U,42835,999,48568,.17056E-3,.2164E-4,0
LEMUR-2-GREENBERG,2017-042N,2026-06-11T11:12:33.333408,15.31150950,.0009064,97.3816,343.1197,33.8606,326.3213,0,U,42837,999,48751,.43649E-3,.13082E-3,0
LEMUR-2-FURIAUS,2017-042R,2026-06-11T10:57:47.627136,15.30063384,.0008429,97.3767,341.0779,86.5295,273.6910,0,U,42840,999,48733,.51338E-3,.1489E-3,0
CORVUS BC2,2017-042X,2026-06-11T09:58:08.443200,15.06255418,.0014182,97.4049,323.9906,128.3697,231.8807,0,U,42846,999,48619,.17303E-3,.2485E-4,0
CORVUS BC1,2017-042Y,2026-06-11T09:51:19.485216,15.06425135,.0013167,97.4079,324.7960,106.9575,253.3097,0,U,42847,999,48622,.21789E-3,.3158E-4,0
VRSS-2,2017-060A,2026-06-11T17:09:50.921280,14.81183663,.0018387,97.6519,200.6885,115.2082,245.1040,0,U,42954,999,46764,.62515E-4,.438E-5,0
MOHAMMED VI-A,2017-070A,2026-06-11T17:22:11.203392,14.77063777,.0001473,97.9558,235.1301,72.0881,288.0490,0,U,43005,999,46317,.12394E-3,.824E-5,0
FENGYUN 3D,2017-072A,2026-06-11T17:17:57.121728,14.19736825,.0002652,99.0120,137.0440,71.2836,288.8627,0,U,43010,999,44421,-.13215E-3,-.326E-5,0
NOAA 20 (JPSS-1),2017-073A,2026-06-11T15:27:53.375328,14.19510731,.0000355,98.7772,102.1563,55.7149,304.4060,0,U,43013,999,44368,.40353E-4,.41E-6,0
MAKERSAT 0,2017-073D,2026-06-11T15:04:28.409376,15.31905939,.0105553,97.4637,45.1038,293.1636,65.8513,0,U,43016,999,46561,.50303E-3,.18408E-3,0
RADFXSAT (FOX-1B),2017-073E,2026-06-11T14:02:53.808000,15.12626564,.015045,97.4718,29.9151,348.6412,11.1435,0,U,43017,999,46454,.38005E-3,.8698E-4,0
JILIN-1 04,2017-074A,2026-06-11T16:50:02.421024,15.42305405,.0003682,97.4850,272.1684,196.8933,163.2192,0,U,43022,999,47342,.29936E-3,.1281E-3,0
JILIN-1 05,2017-074B,2026-06-11T16:57:14.624064,15.33790416,.000395,97.4857,268.7869,237.4275,122.6586,0,U,43023,999,47316,.24612E-3,.7964E-4,0
JILIN-1 06,2017-074C,2026-06-11T16:15:26.250624,15.33632660,.0005379,97.4784,265.7739,254.9436,105.1211,0,U,43024,999,47299,.15883E-3,.5084E-4,0
IRIDIUM 116,2017-083C,2026-06-11T16:52:43.154400,14.34217691,.0001882,86.3959,324.2947,95.6991,264.4419,0,U,43072,999,44338,.15909E-4,.64E-6,0
IRIDIUM 130,2017-083D,2026-06-11T11:05:39.085152,14.34217257,.0001838,86.3965,324.6703,89.0856,271.0550,0,U,43073,999,44329,-.40443E-4,-.93E-6,0
LKW-2,2017-084A,2026-06-11T17:14:07.183680,15.26267112,.0000389,97.1199,202.7699,209.0366,151.0851,0,U,43080,999,47085,.23704E-3,.6076E-4,0
SUPERVIEW-1 03,2018-002A,2026-06-11T16:54:46.173312,15.39071478,.0046855,97.3136,247.5512,199.1874,160.7609,0,U,43099,999,46752,.42766E-3,.17125E-3,0
CARTOSAT-2F,2018-004A,2026-06-11T16:12:59.341248,15.19174253,.0000286,97.4796,222.3640,290.2378,69.8825,0,U,43111,999,46649,.24051E-3,.499E-4,0
LKW-3,2018-006A,2026-06-11T17:01:04.583712,15.35146851,.0002548,97.6601,323.0707,349.2983,10.8205,0,U,43146,999,46787,.38209E-3,.12958E-3,0
ASNARO-2,2018-007A,2026-06-11T17:32:10.026240,15.22411589,.0001878,97.3972,169.7430,94.1291,266.0160,0,U,43152,999,46658,.35422E-3,.812E-4,0
JILIN-1 07,2018-008E,2026-06-11T16:20:51.473184,15.34630569,.0010174,97.1774,182.7566,81.4235,278.8162,0,U,43159,999,46415,.25151E-3,.8377E-4,0
JILIN-1 08,2018-008F,2026-06-11T16:16:02.447040,15.33650545,.0008095,97.1806,182.0756,94.9759,265.2409,0,U,43160,999,46410,.2029E-3,.6531E-4,0
S-NET D,2018-014G,2026-06-11T15:44:33.019008,15.16621270,.0009456,97.5371,67.4814,47.1096,313.0929,0,U,43186,999,45792,.23421E-3,.4515E-4,0
