CARTOSAT-2E             
1 42767U 17036C   26162.38018890  .00003701  00000+0  17867-3 0  9999
2 42767  97.4279 222.2784 0002739 345.0815  15.0338 15.19276811497269
IRIDIUM 113             
1 42803U 17039A   26162.51934297  .00000050  00000+0  10677-4 0  9993
2 42803  86.3966 324.5486 0002303  89.5088 270.6372 14.34217670470378
NORSAT 2                
1 42828U 17042D   26162.43887468  .00008942  00000+0  39608-3 0  9994
2 42828  97.4031 335.9718 0010720  75.5077 284.7348 15.21814729486865
TECHNOSAT               
1 42829U 17042E   26162.39817513  .00003079  00000+0  22080-3 0  9996
2 42829  97.4263 320.2771 0018777 112.5016 247.8201 15.04918472485839
FLYING LAPTOP           
1 42831U 17042G   26162.71953253  .00002965  00000+0  23520-3 0  9990
2 42831  97.4661 318.4641 0019311 139.4783 220.7883 15.01110312485631
WNISAT 1R               
1 42835U 17042L   26162.69482083  .00002164  00000+0  17056-3 0  9997
2 42835  97.4829 319.0139 0010485 165.8188 194.3333 15.01739359485684
LEMUR-2-GREENBERG       
1 42837U 17042N   26162.46705247  .00013082  00000+0  43649-3 0  9992
2 42837  97.3816 343.1197 0009064  33.8606 326.3213 15.31150950487518
LEMUR-2-FURIAUS         
1 42840U 17042R   26162.45680124  .00014890  00000+0  51338-3 0  9993
2 42840  97.3767 341.0779 0008429  86.5295 273.6910 15.30063384487334
CORVUS BC2              
1 42846U 17042X   26162.41537550  .00002485  00000+0  17303-3 0  9990
2 42846  97.4049 323.9906 0014182 128.3697 231.8807 15.06255418486197
CORVUS BC1              
1 42847U 17042Y   26162.41064219  .00003158  00000+0  21789-3 0  9999
2 42847  97.4079 324.7960 0013167 106.9575 253.3097 15.06425135486228
VRSS-2                  
1 42954U 17060A   26162.71517270  .00000438  00000+0  62515-4 0  9992
2 42954  97.6519 200.6885 0018387 115.2082 245.1040 14.81183663467642
MOHAMMED VI-A           
1 43005U 17070A   26162.72374078  .00000824  00000+0  12394-3 0  9997
2 43005  97.9558 235.1301 0001473  72.0881 288.0490 14.77063777463174
FENGYUN 3D              
1 43010U 17072A   26162.72080002 -.00000326  00000+0 -13215-3 0  9998
2 43010  99.0120 137.0440 0002652  71.2836 288.8627 14.19736825444214
NOAA 20 (JPSS-1)        
1 43013U 17073A   26162.64436777  .00000041  00000+0  40353-4 0  9993
2 43013  98.7772 102.1563 0000355  55.7149 304.4060 14.19510731443689
MAKERSAT 0              
1 43016U 17073D   26162.62810659  .00018408  00000+0  50303-3 0  9990
2 43016  97.4637  45.1038 0105553 293.1636  65.8513 15.31905939465617
RADFXSAT (FOX-1B)       
1 43017U 17073E   26162.58534500  .00008698  00000+0  38005-3 0  9999
2 43017  97.4718  29.9151 0150450 348.6412  11.1435 15.12626564464549
JILIN-1 04              
1 43022U 17074A   26162.70141691  .00012810  00000+0  29936-3 0  9999
2 43022  97.4850 272.1684 0003682 196.8933 163.2192 15.42305405473427
JILIN-1 05              
1 43023U 17074B   26162.70641926  .00007964  00000+0  24612-3 0  9996
2 43023  97.4857 268.7869 0003950 237.4275 122.6586 15.33790416473167
JILIN-1 06              
1 43024U 17074C   26162.67738716  .00005084  00000+0  15883-3 0  9998
2 43024  97.4784 265.7739 0005379 254.9436 105.1211 15.33632660472997
IRIDIUM 116             
1 43072U 17083C   26162.70327725  .00000064  00000+0  15909-4 0  9992
2 43072  86.3959 324.2947 0001882  95.6991 264.4419 14.34217691443387
IRIDIUM 130             
1 43073U 17083D   26162.46225793 -.00000093  00000+0 -40443-4 0  9993
2 43073  86.3965 324.6703 0001838  89.0856 271.0550 14.34217257443295
LKW-2                   
1 43080U 17084A   26162.71813870  .00006076  00000+0  23704-3 0  9994
2 43080  97.1199 202.7699 0000389 209.0366 151.0851 15.26267112470852
SUPERVIEW-1 03          
1 43099U 18002A   26162.70470108  .00017125  00000+0  42766-3 0  9993
2 43099  97.3136 247.5512 0046855 199.1874 160.7609 15.39071478467527
CARTOSAT-2F             
1 43111U 18004A   26162.67568682  .00004990  00000+0  24051-3 0  9994
2 43111  97.4796 222.3640 0000286 290.2378  69.8825 15.19174253466495
LKW-3                   
1 43146U 18006A   26162.70908083  .00012958  00000+0  38209-3 0  9994
2 43146  97.6601 323.0707 0002548 349.2983  10.8205 15.35146851467875
ASNARO-2                
1 43152U 18007A   26162.73067160  .00008120  00000+0  35422-3 0  9997
2 43152  97.3972 169.7430 0001878  94.1291 266.0160 15.22411589466582
JILIN-1 07              
1 43159U 18008E   26162.68115131  .00008377  00000+0  25151-3 0  9993
2 43159  97.1774 182.7566 0010174  81.4235 278.8162 15.34630569464156
JILIN-1 08              
1 43160U 18008F   26162.67780610  .00006531  00000+0  20290-3 0  9993
2 43160  97.1806 182.0756 0008095  94.9759 265.2409 15.33650545464101
S-NET D                 
1 43186U 18014G   26162.65593772  .00004515  00000+0  23421-3 0  9996
2 43186  97.5371  67.4814 0009456  47.1096 313.0929 15.16621270457922
